{
  "norad_id": 58977,
  "name": "STARLINK-31358",
  "history": [
    {
      "epoch": "2026-03-28T17:42:42.886368Z",
      "apogee_km": 476.0350385745742,
      "perigee_km": 474.3825598354697,
      "latitude_deg": 1.1834051568722365e-05,
      "longitude_deg": 116.08347733958848,
      "height_km": 475.8310969377666,
      "semi_major_axis_km": 6853.345799205022,
      "eccentricity": 0.00012056,
      "inclination_deg": 53.1579,
      "raan_deg": 207.9163,
      "arg_perigee_deg": 70.5049,
      "mean_anomaly_deg": 289.6082,
      "mean_motion_rev_day": 15.302021
    }
  ]
}